NORAD_CAT_ID,OBJECT_NAME,OBJECT_TYPE,EPOCH,MEAN_MOTION,ECCENTRICITY,INCLINATION,RA_OF_ASC_NODE,ARG_OF_PERICENTER,MEAN_ANOMALY,BSTAR,MEAN_MOTION_DOT,MEAN_MOTION_DDOT,TLE_LINE0,TLE_LINE1,TLE_LINE2,SEMIMAJOR_AXIS,PERIOD,APOGEE,PERIGEE,DECAYED
55290.0,STARLINK-5266,PAYLOAD,2024-06-28 04:37:47,14.98332116,0.0003573,69.9991,146.4634,266.7402,93.3348,-2.4538e-05,-3.86e-06,0.0,0 STARLINK-5266,1 55290U 23010X   24180.19291183 -.00000386  00000-0 -24538-4 0  9991,2 55290  69.9991 146.4634 0003573 266.7402  93.3348 14.98332116 80173,6950.186,96.107,574.535,569.568,0.0
55290.0,STARLINK-5266,PAYLOAD,2024-06-28 07:50:04,14.98291705,0.0003276,69.9992,146.1267,266.907,93.1714,0.00072751,8.59e-05,0.0,0 STARLINK-5266,1 55290U 23010X   24180.32643909  .00008590  00000-0  72751-3 0  9995,2 55290  69.9992 146.1267 0003276 266.9070  93.1714 14.98291705 80191,6950.311,96.109,574.453,569.899,0.0
55290.0,STARLINK-5266,PAYLOAD,2024-06-28 22:15:16,14.98334622,0.0003529,69.9995,144.6117,266.9825,93.093,8.044e-07,-8.3e-07,0.0,0 STARLINK-5266,1 55290U 23010X   24180.92726853 -.00000083  00000-0  80440-6 0  9998,2 55290  69.9995 144.6117 0003529 266.9825  93.0930 14.98334622 80588,6950.179,96.107,574.496,569.591,0.0
55290.0,STARLINK-5266,PAYLOAD,2024-06-29 04:39:47,14.98338954,0.0003486,69.9995,143.9386,267.0821,92.9939,3.64e-05,3.41e-06,0.0,0 STARLINK-5266,1 55290U 23010X   24181.19430408  .00000341  00000-0  36400-4 0  9997,2 55290  69.9995 143.9386 0003486 267.0821  92.9939 14.98338954 80329,6950.165,96.106,574.453,569.607,0.0
55290.0,STARLINK-5266,PAYLOAD,2024-06-29 14:16:36,14.98332301,0.0003459,70.0002,142.9268,271.4759,88.6004,1.9625e-05,1.41e-06,0.0,0 STARLINK-5266,1 55290U 23010X   24181.59486751  .00000141  00000-0  19625-4 0  9991,2 55290  70.0002 142.9268 0003459 271.4759  88.6004 14.98332301 80682,6950.186,96.107,574.455,569.647,0.0
55290.0,STARLINK-5266,PAYLOAD,2024-06-29 22:17:17,14.9832684,0.0003006,69.9995,142.0871,269.939,90.1425,-1.1219e-05,-2.27e-06,0.0,0 STARLINK-5266,1 55290U 23010X   24181.92867394 -.00000227  00000-0 -11219-4 0  9992,2 55290  69.9995 142.0871 0003006 269.9390  90.1425 14.98326840 80734,6950.203,96.107,574.157,569.978,0.0
55290.0,STARLINK-5266,PAYLOAD,2024-06-30 04:41:49,14.98324313,0.0003107,70.0001,141.4152,261.6311,98.4496,-3.9959e-05,-5.7e-06,0.0,0 STARLINK-5266,1 55290U 23010X   24182.19571594 -.00000570  00000-0 -39959-4 0  9998,2 55290  70.0001 141.4152 0003107 261.6311  98.4496 14.98324313 80477,6950.21,96.107,574.235,569.916,0.0
55290.0,STARLINK-5266,PAYLOAD,2024-06-30 14:18:38,14.98327422,0.0003064,70.0002,140.4052,264.6907,95.3903,-2.9393e-05,-4.44e-06,0.0,0 STARLINK-5266,1 55290U 23010X   24182.59627476 -.00000444  00000-0 -29393-4 0  9994,2 55290  70.0002 140.4052 0003064 264.6907  95.3903 14.98327422 80835,6950.201,96.107,574.195,569.936,0.0
55290.0,STARLINK-5266,PAYLOAD,2024-06-30 22:19:17,14.98334464,0.0003103,70.0001,139.5633,264.8168,95.2637,-3.7521e-06,-1.38e-06,0.0,0 STARLINK-5266,1 55290U 23010X   24182.93006942 -.00000138  00000-0 -37521-5 0  9994,2 55290  70.0001 139.5633 0003103 264.8168  95.2637 14.98334464 80885,6950.179,96.107,574.201,569.887,0.0
55290.0,STARLINK-5266,PAYLOAD,2024-07-01 04:43:50,14.98334008,0.0003008,70.0003,138.8896,264.0151,96.0666,3.4179e-05,3.15e-06,0.0,0 STARLINK-5266,1 55290U 23010X   24183.19710810  .00000315  00000-0  34179-4 0  9999,2 55290  70.0003 138.8896 0003008 264.0151  96.0666 14.98334008 80625,6950.18,96.107,574.136,569.955,0.0
55290.0,STARLINK-5266,PAYLOAD,2024-07-01 14:20:38,14.98334996,0.0003195,69.9999,137.8794,269.0429,91.0364,-3.1959e-05,-4.74e-06,0.0,0 STARLINK-5266,1 55290U 23010X   24183.59766786 -.00000474  00000-0 -31959-4 0  9997,2 55290  69.9999 137.8794 0003195 269.0429  91.0364 14.98334996 80987,6950.177,96.107,574.263,569.822,0.0
55290.0,STARLINK-5266,PAYLOAD,2024-07-01 22:21:19,14.9832389,0.0003025,70.0001,137.0377,267.4191,92.6622,5.6353e-05,5.79e-06,0.0,0 STARLINK-5266,1 55290U 23010X   24183.93147359  .00000579  00000-0  56353-4 0  9993,2 55290  70.0001 137.0377 0003025 267.4191  92.6622 14.98323890 81035,6950.212,96.107,574.179,569.974,0.0
55290.0,STARLINK-5266,PAYLOAD,2024-07-02 04:45:51,14.9830501,0.0002966,70.0,136.364,266.4021,93.6799,0.00040819,4.778e-05,0.0,0 STARLINK-5266,1 55290U 23010X   24184.19851713  .00004778  00000-0  40819-3 0  9992,2 55290  70.0000 136.3640 0002966 266.4021  93.6799 14.98305010 80773,6950.27,96.109,574.197,570.074,0.0
55290.0,STARLINK-5266,PAYLOAD,2024-07-02 06:21:59,14.98327316,0.000305,70.0001,136.1966,265.3441,94.737,4.9526e-05,4.98e-06,0.0,0 STARLINK-5266,1 55290U 23010X   24184.26527234  .00000498  00000-0  49526-4 0  9998,2 55290  70.0001 136.1966 0003050 265.3441  94.7370 14.98327316 80783,6950.201,96.107,574.186,569.946,0.0
55290.0,STARLINK-5266,PAYLOAD,2024-07-02 14:22:39,14.98328975,0.0003128,69.9999,135.3545,269.528,90.5521,1.9069e-05,1.35e-06,0.0,0 STARLINK-5266,1 55290U 23010X   24184.59907233  .00000135  00000-0  19069-4 0  9992,2 55290  69.9999 135.3545 0003128 269.5280  90.5521 14.98328975 81137,6950.196,96.107,574.235,569.887,0.0
55290.0,STARLINK-5266,PAYLOAD,2024-07-02 22:23:20,14.98327015,0.0003155,70.0,134.5132,269.9168,90.163,-1.4863e-05,-2.7e-06,0.0,0 STARLINK-5266,1 55290U 23010X   24184.93287484 -.00000270  00000-0 -14863-4 0  9998,2 55290  70.0000 134.5132 0003155 269.9168  90.1630 14.98327015 81181,6950.202,96.107,574.26,569.874,0.0
55290.0,STARLINK-5266,PAYLOAD,2024-07-03 06:24:00,14.98334083,0.0003085,69.9999,133.671,268.8115,91.2691,5.2998e-06,-3e-07,0.0,0 STARLINK-5266,1 55290U 23010X   24185.26666965 -.00000030  00000-0  52998-5 0  9995,2 55290  69.9999 133.6710 0003085 268.8115  91.2691 14.98334083 80933,6950.18,96.107,574.189,569.901,0.0
55290.0,STARLINK-5266,PAYLOAD,2024-07-03 22:25:21,14.98319567,0.0003058,69.9999,131.9874,269.5808,90.5001,0.00017767,2.027e-05,0.0,0 STARLINK-5266,1 55290U 23010X   24185.93427383  .00002027  00000-0  17767-3 0  9998,2 55290  69.9999 131.9874 0003058 269.5808  90.5001 14.98319567 81334,6950.225,96.108,574.216,569.965,0.0
55290.0,STARLINK-5266,PAYLOAD,2024-07-04 06:26:01,14.98333712,0.0003049,69.9999,131.1463,270.2594,89.8216,6.4927e-05,6.82e-06,0.0,0 STARLINK-5266,1 55290U 23010X   24186.26806747  .00000682  00000-0  64927-4 0  9996,2 55290  69.9999 131.1463 0003049 270.2594  89.8216 14.98333712 81080,6950.181,96.107,574.166,569.927,0.0
55290.0,STARLINK-5266,PAYLOAD,2024-07-04 22:27:21,14.98330528,0.0002984,70.0,129.4631,270.6006,89.4812,3.6017e-05,3.37e-06,0.0,0 STARLINK-5266,1 55290U 23010X   24186.93566946  .00000337  00000-0  36017-4 0  9990,2 55290  70.0000 129.4631 0002984 270.6006  89.4812 14.98330528 81486,6950.191,96.107,574.13,569.982,0.0
55290.0,STARLINK-5266,PAYLOAD,2024-07-05 12:52:34,14.98337228,0.0003004,70.0002,127.9482,272.2568,87.8247,-6.6469e-05,-8.86e-06,0.0,0 STARLINK-5266,1 55290U 23010X   24187.53650578 -.00000886  00000-0 -66469-4 0  9997,2 55290  70.0002 127.9482 0003004 272.2568  87.8247 14.98337228 81275,6950.171,96.107,574.123,569.948,0.0
55290.0,STARLINK-5266,PAYLOAD,2024-07-05 20:53:15,14.98327114,0.0002791,70.0006,127.1067,272.7404,87.3436,-6.2803e-05,-8.42e-06,0.0,0 STARLINK-5266,1 55290U 23010X   24187.87031297 -.00000842  00000-0 -62803-4 0  9995,2 55290  70.0006 127.1067 0002791 272.7404  87.3436 14.98327114 81320,6950.202,96.107,574.007,570.127,0.0
55290.0,STARLINK-5266,PAYLOAD,2024-07-05 22:29:23,14.98326535,0.0002799,70.0005,126.9384,272.6439,87.44,-6.7703e-05,-9.01e-06,0.0,0 STARLINK-5266,1 55290U 23010X   24187.93707350 -.00000901  00000-0 -67703-4 0  9992,2 55290  70.0005 126.9384 0002799 272.6439  87.4400 14.98326535 81635,6950.204,96.107,574.014,570.123,0.0
55290.0,STARLINK-5266,PAYLOAD,2024-07-06 12:54:35,14.98343974,0.0002819,70.0006,125.4248,268.308,91.7757,-0.00031901,-3.899e-05,0.0,0 STARLINK-5266,1 55290U 23010X   24188.53790728 -.00003899  00000-0 -31901-3 0  9999,2 55290  70.0006 125.4248 0002819 268.3080  91.7757 14.98343974 81422,6950.15,96.106,573.974,570.055,0.0
55290.0,STARLINK-5266,PAYLOAD,2024-07-06 22:31:23,14.98331034,0.0002732,70.0003,124.415,263.0784,97.0064,-5.294e-05,-7.25e-06,0.0,0 STARLINK-5266,1 55290U 23010X   24188.93846988 -.00000725  00000-0 -52940-4 0  9995,2 55290  70.0003 124.4150 0002732 263.0784  97.0064 14.98331034 81780,6950.19,96.107,573.953,570.156,0.0
55290.0,STARLINK-5266,PAYLOAD,2024-07-07 04:55:55,14.98331718,0.0002729,70.0004,123.7414,265.6307,94.4541,-3.8125e-05,-5.48e-06,0.0,0 STARLINK-5266,1 55290U 23010X   24189.20550903 -.00000548  00000-0 -38125-4 0  9997,2 55290  70.0004 123.7414 0002729 265.6307  94.4541 14.98331718 81523,6950.188,96.107,573.949,570.156,0.0
55290.0,STARLINK-5266,PAYLOAD,2024-07-08 12:58:37,14.98329601,0.0002799,70.0003,120.3743,266.8802,93.2037,1.9294e-05,1.37e-06,0.0,0 STARLINK-5266,1 55290U 23010X   24190.54070858  .00000137  00000-0  19294-4 0  9990,2 55290  70.0003 120.3743 0002799 266.8802  93.2037 14.98329601 81727,6950.194,96.107,574.004,570.114,0.0
55290.0,STARLINK-5266,PAYLOAD,2024-07-08 22:35:25,14.98329588,0.0002838,70.0001,119.3646,267.3589,92.7245,3.7865e-05,3.59e-06,0.0,0 STARLINK-5266,1 55290U 23010X   24190.94126797  .00000359  00000-0  37865-4 0  9998,2 55290  70.0001 119.3646 0002838 267.3589  92.7245 14.98329588 82086,6950.194,96.107,574.032,570.087,0.0
55290.0,STARLINK-5266,PAYLOAD,2024-07-09 13:00:38,14.98328604,0.0002918,70.0,117.8484,268.9424,91.1401,-8.0705e-06,-1.89e-06,0.0,0 STARLINK-5266,1 55290U 23010X   24191.54210893 -.00000189  00000-0 -80705-5 0  9991,2 55290  70.0000 117.8484 0002918 268.9424  91.1401 14.98328604 81873,6950.197,96.107,574.09,570.034,0.0
55290.0,STARLINK-5266,PAYLOAD,2024-07-09 22:37:26,14.9832796,0.0002942,69.9999,116.8387,269.115,90.9672,-7.1742e-05,-9.49e-06,0.0,0 STARLINK-5266,1 55290U 23010X   24191.94267158 -.00000949  00000-0 -71742-4 0  9995,2 55290  69.9999 116.8387 0002942 269.1150  90.9672 14.98327960 82236,6950.199,96.107,574.109,570.019,0.0
